COMMENT,ORIGINATOR,NORAD_CAT_ID,OBJECT_NAME,OBJECT_TYPE,CLASSIFICATION_TYPE,INTLDES,EPOCH,EPOCH_MICROSECONDS,MEAN_MOTION,ECCENTRICITY,INCLINATION,RA_OF_ASC_NODE,ARG_OF_PERICENTER,MEAN_ANOMALY,EPHEMERIS_TYPE,ELEMENT_SET_NO,REV_AT_EPOCH,BSTAR,MEAN_MOTION_DOT,MEAN_MOTION_DDOT,FILE,TLE_LINE0,TLE_LINE1,TLE_LINE2,OBJECT_ID,OBJECT_NUMBER,SEMIMAJOR_AXIS,PERIOD,APOGEE,PERIGEE,DECAYED
"GENERATED VIA SPACETRACK.ORG API","18 SPCS","48895","SPACEBEE-108","PAYLOAD","U","21059S","2022-09-13 07:50:22","31232","15.17074375","0.0009429","97.5676","25.7647","156.3672","203.7996","0","999","6725","0.00061108","0.00012056","0","3571884","0 SPACEBEE-108","1 48895U 21059S   22256.32664388  .00012056  00000-0  61108-3 0  9991","2 48895  97.5676  25.7647 0009429 156.3672 203.7996 15.17074375 67257","2021-059S","48895","6892.825","94.920","521.189","508.191","0"
"GENERATED VIA SPACETRACK.ORG API","18 SPCS","48895","SPACEBEE-108","PAYLOAD","U","21059S","2022-09-13 07:50:22","31232","15.17074375","0.0009429","97.5676","25.7647","156.3672","203.7996","0","999","6725","0.00061108","0.00012056","0","3572069","0 SPACEBEE-108","1 48895U 21059S   22256.32664388  .00012056  00000-0  61108-3 0  9991","2 48895  97.5676  25.7647 0009429 156.3672 203.7996 15.17074375 67257","2021-059S","48895","6892.825","94.920","521.189","508.191","0"
"GENERATED VIA SPACETRACK.ORG API","18 SPCS","48895","SPACEBEE-108","PAYLOAD","U","21059S","2022-09-14 07:35:03","194880","15.17100542","0.0009427","97.5676","26.7526","153.4104","206.7614","0","999","6740","0.00063998","0.0001264","0","3574027","0 SPACEBEE-108","1 48895U 21059S   22257.31600920  .00012640  00000-0  63998-3 0  9991","2 48895  97.5676  26.7526 0009427 153.4104 206.7614 15.17100542 67403","2021-059S","48895","6892.746","94.918","521.109","508.113","0"
"GENERATED VIA SPACETRACK.ORG API","18 SPCS","48895","SPACEBEE-108","PAYLOAD","U","21059S","2022-09-15 04:09:45","679104","15.17126947","0.0009461","97.568","27.609","150.525","209.6518","0","999","6753","0.00081524","0.0001614","0","3574356","0 SPACEBEE-108","1 48895U 21059S   22258.17344536  .00016140  00000-0  81524-3 0  9998","2 48895  97.5680  27.6090 0009461 150.5250 209.6518 15.17126947 67538","2021-059S","48895","6892.666","94.916","521.052","508.010","0"
"GENERATED VIA SPACETRACK.ORG API","18 SPCS","48895","SPACEBEE-108","PAYLOAD","U","21059S","2022-09-15 07:19:42","885408","15.17130761","0.000951","97.568","27.7407","149.9282","210.2499","0","999","6755","0.00081271","0.00016091","0","3574601","0 SPACEBEE-108","1 48895U 21059S   22258.30535747  .00016091  00000-0  81271-3 0  9993","2 48895  97.5680  27.7407 0009510 149.9282 210.2499 15.17130761 67550","2021-059S","48895","6892.654","94.916","521.074","507.964","0"
"GENERATED VIA SPACETRACK.ORG API","18 SPCS","48895","SPACEBEE-108","PAYLOAD","U","21059S","2022-09-16 08:39:19","629504","15.17153206","0.0009601","97.5679","28.7942","146.1056","214.0792","0","999","6771","0.00056772","0.0001122","0","3575415","0 SPACEBEE-108","1 48895U 21059S   22259.36064386  .00011220  00000-0  56772-3 0  9993","2 48895  97.5679  28.7942 0009601 146.1056 214.0792 15.17153206 67717","2021-059S","48895","6892.586","94.915","521.069","507.834","0"
"GENERATED VIA SPACETRACK.ORG API","18 SPCS","48895","SPACEBEE-108","PAYLOAD","U","21059S","2022-09-16 08:39:19","629504","15.17153206","0.0009601","97.5679","28.7942","146.1056","214.0792","0","999","6771","0.00056772","0.0001122","0","3575604","0 SPACEBEE-108","1 48895U 21059S   22259.36064386  .00011220  00000-0  56772-3 0  9993","2 48895  97.5679  28.7942 0009601 146.1056 214.0792 15.17153206 67717","2021-059S","48895","6892.586","94.915","521.069","507.834","0"
"GENERATED VIA SPACETRACK.ORG API","18 SPCS","48895","SPACEBEE-108","PAYLOAD","U","21059S","2022-09-17 08:23:56","531040","15.17172444","0.0009659","97.5678","29.7821","142.9283","217.2619","0","999","6786","0.00044832","0.00008848","0","3576375","0 SPACEBEE-108","1 48895U 21059S   22260.34995985  .00008848  00000-0  44832-3 0  9997","2 48895  97.5678  29.7821 0009659 142.9283 217.2619 15.17172444 67866","2021-059S","48895","6892.528","94.913","521.051","507.736","0"
"GENERATED VIA SPACETRACK.ORG API","18 SPCS","48895","SPACEBEE-108","PAYLOAD","U","21059S","2022-09-17 19:28:45","373728","15.17182535","0.0009711","97.5675","30.2429","141.5985","218.5941","0","999","6793","0.00050384","0.00009957","0","3576443","0 SPACEBEE-108","1 48895U 21059S   22260.81163627  .00009957  00000-0  50384-3 0  9990","2 48895  97.5675  30.2429 0009711 141.5985 218.5941 15.17182535 67939","2021-059S","48895","6892.498","94.913","521.056","507.669","0"
"GENERATED VIA SPACETRACK.ORG API","18 SPCS","48895","SPACEBEE-108","PAYLOAD","U","21059S","2022-09-17 19:28:45","373728","15.17182535","0.0009711","97.5675","30.2429","141.5985","218.5941","0","999","6793","0.00050384","0.00009957","0","3576621","0 SPACEBEE-108","1 48895U 21059S   22260.81163627  .00009957  00000-0  50384-3 0  9990","2 48895  97.5675  30.2429 0009711 141.5985 218.5941 15.17182535 67939","2021-059S","48895","6892.498","94.913","521.056","507.669","0"
"GENERATED VIA SPACETRACK.ORG API","18 SPCS","48895","SPACEBEE-108","PAYLOAD","U","21059S","2022-09-18 08:08:32","329248","15.17192462","0.0009713","97.5673","30.7696","140.0084","220.1866","0","999","6801","0.00046891","0.00009263","0","3577171","0 SPACEBEE-108","1 48895U 21059S   22261.33926307  .00009263  00000-0  46891-3 0  9998","2 48895  97.5673  30.7696 0009713 140.0084 220.1866 15.17192462 68019","2021-059S","48895","6892.467","94.912","521.027","507.638","0"
"GENERATED VIA SPACETRACK.ORG API","18 SPCS","48895","SPACEBEE-108","PAYLOAD","U","21059S","2022-09-18 20:48:18","972864","15.17204118","0.000963","97.5671","31.2963","138.1168","222.0804","0","999","6809","0.00052505","0.00010386","0","3577422","0 SPACEBEE-108","1 48895U 21059S   22261.86688626  .00010386  00000-0  52505-3 0  9992","2 48895  97.5671  31.2963 0009630 138.1168 222.0804 15.17204118 68092","2021-059S","48895","6892.432","94.911","520.935","507.660","0"
"GENERATED VIA SPACETRACK.ORG API","18 SPCS","48895","SPACEBEE-108","PAYLOAD","U","21059S","2022-09-18 22:23:17","277504","15.17205442","0.000963","97.567","31.3621","137.9142","222.2832","0","999","6810","0.00052535","0.00010392","0","3577500","0 SPACEBEE-108","1 48895U 21059S   22261.93283886  .00010392  00000-0  52535-3 0  9999","2 48895  97.5670  31.3621 0009630 137.9142 222.2832 15.17205442 68108","2021-059S","48895","6892.428","94.911","520.931","507.656","0"
"GENERATED VIA SPACETRACK.ORG API","18 SPCS","48895","SPACEBEE-108","PAYLOAD","U","21059S","2022-09-19 07:53:06","996480","15.1721388","0.0009651","97.567","31.7572","136.9003","223.2987","0","999","6816","0.0005281","0.00010449","0","3577889","0 SPACEBEE-108","1 48895U 21059S   22262.32855320  .00010449  00000-0  52810-3 0  9990","2 48895  97.5670  31.7572 0009651 136.9003 223.2987 15.17213880 68168","2021-059S","48895","6892.403","94.911","520.919","507.616","0"
"GENERATED VIA SPACETRACK.ORG API","18 SPCS","48895","SPACEBEE-108","PAYLOAD","U","21059S","2022-09-19 18:57:54","760896","15.17224756","0.0009633","97.567","32.2182","135.4665","224.7344","0","999","6823","0.00058316","0.00011551","0","3578162","0 SPACEBEE-108","1 48895U 21059S   22262.79021714  .00011551  00000-0  58316-3 0  9995","2 48895  97.5670  32.2182 0009633 135.4665 224.7344 15.17224756 68234","2021-059S","48895","6892.370","94.910","520.874","507.595","0"
"GENERATED VIA SPACETRACK.ORG API","18 SPCS","48895","SPACEBEE-108","PAYLOAD","U","21059S","2022-09-20 07:37:40","447200","15.17236001","0.0009665","97.5671","32.745","133.8793","226.324","0","999","6831","0.00056117","0.00011116","0","3578518","0 SPACEBEE-108","1 48895U 21059S   22263.31782925  .00011116  00000-0  56117-3 0  9996","2 48895  97.5671  32.7450 0009665 133.8793 226.3240 15.17236001 68315","2021-059S","48895","6892.336","94.909","520.862","507.539","0"
"GENERATED VIA SPACETRACK.ORG API","18 SPCS","48895","SPACEBEE-108","PAYLOAD","U","21059S","2022-09-20 07:37:40","447200","15.17236001","0.0009665","97.5671","32.745","133.8793","226.324","0","999","6831","0.00056117","0.00011116","0","3578736","0 SPACEBEE-108","1 48895U 21059S   22263.31782925  .00011116  00000-0  56117-3 0  9996","2 48895  97.5671  32.7450 0009665 133.8793 226.3240 15.17236001 68315","2021-059S","48895","6892.336","94.909","520.862","507.539","0"
"GENERATED VIA SPACETRACK.ORG API","18 SPCS","48895","SPACEBEE-108","PAYLOAD","U","21059S","2022-09-21 07:22:12","626112","15.17257762","0.0009738","97.5675","33.7331","130.9833","229.2244","0","999","6846","0.00053401","0.00010581","0","3579752","0 SPACEBEE-108","1 48895U 21059S   22264.30709058  .00010581  00000-0  53401-3 0  9990","2 48895  97.5675  33.7331 0009738 130.9833 229.2244 15.17257762 68461","2021-059S","48895","6892.270","94.908","520.846","507.423","0"
"GENERATED VIA SPACETRACK.ORG API","18 SPCS","48895","SPACEBEE-108","PAYLOAD","U","21059S","2022-09-22 02:21:49","583520","15.1727163","0.0009794","97.5679","34.5234","128.1768","232.0349","0","999","6858","0.00044092","0.00008726","0","3579838","0 SPACEBEE-108","1 48895U 21059S   22265.09849055  .00008726  00000-0  44092-3 0  9993","2 48895  97.5679  34.5234 0009794 128.1768 232.0349 15.17271630 68585","2021-059S","48895","6892.228","94.907","520.843","507.342","0"
"GENERATED VIA SPACETRACK.ORG API","18 SPCS","48895","SPACEBEE-108","PAYLOAD","U","21059S","2022-09-22 21:21:25","922304","15.17287068","0.0009849","97.5681","35.3139","125.6056","234.6096","0","999","6870","0.00048588","0.00009628","0","3580594","0 SPACEBEE-108","1 48895U 21059S   22265.88988336  .00009628  00000-0  48588-3 0  9992","2 48895  97.5681  35.3139 0009849 125.6056 234.6096 15.17287068 68707","2021-059S","48895","6892.181","94.906","520.834","507.258","0"
